{
  "links" : {
    "next" : "https://api.nasa.gov/neo/rest/v1/feed?start_date=1997-12-16&end_date=1997-12-16&detailed=true&api_key=t0TVs3DtDT2H8Oy2Zy8m2eVrNsAVKAexjcZXUckd",
    "prev" : "https://api.nasa.gov/neo/rest/v1/feed?start_date=1997-12-14&end_date=1997-12-14&detailed=true&api_key=t0TVs3DtDT2H8Oy2Zy8m2eVrNsAVKAexjcZXUckd",
    "self" : "https://api.nasa.gov/neo/rest/v1/feed?start_date=1997-12-15&end_date=1997-12-15&detailed=true&api_key=t0TVs3DtDT2H8Oy2Zy8m2eVrNsAVKAexjcZXUckd"
  },
  "element_count" : 3,
  "near_earth_objects" : {
    "1997-12-15" : [ {
      "links" : {
        "self" : "https://api.nasa.gov/neo/rest/v1/neo/3361624?api_key=t0TVs3DtDT2H8Oy2Zy8m2eVrNsAVKAexjcZXUckd"
      },
      "neo_reference_id" : "3361624",
      "name" : "(2006 WE129)",
      "nasa_jpl_url" : "http://ssd.jpl.nasa.gov/sbdb.cgi?sstr=3361624",
      "absolute_magnitude_h" : 19.5,
      "estimated_diameter" : {
        "kilometers" : {
          "estimated_diameter_min" : 0.3346223745,
          "estimated_diameter_max" : 0.7482383761
        },
        "meters" : {
          "estimated_diameter_min" : 334.6223744549,
          "estimated_diameter_max" : 748.2383760735
        },
        "miles" : {
          "estimated_diameter_min" : 0.2079246394,
          "estimated_diameter_max" : 0.464933628
        },
        "feet" : {
          "estimated_diameter_min" : 1097.8424710066,
          "estimated_diameter_max" : 2454.8503937571
        }
      },
      "is_potentially_hazardous_asteroid" : false,
      "close_approach_data" : [ {
        "close_approach_date" : "1997-12-15",
        "epoch_date_close_approach" : 882172800000,
        "relative_velocity" : {
          "kilometers_per_second" : "21.3431387643",
          "kilometers_per_hour" : "76835.2995513828",
          "miles_per_hour" : "47742.4671018023"
        },
        "miss_distance" : {
          "astronomical" : "0.422165136",
          "lunar" : "164.2222290039",
          "kilometers" : "63155004",
          "miles" : "39242700"
        },
        "orbiting_body" : "Earth"
      } ],
      "orbital_data" : {
        "orbit_id" : "31",
        "orbit_determination_date" : "2017-04-06 09:07:29",
        "orbit_uncertainty" : "0",
        "minimum_orbit_intersection" : ".1083",
        "jupiter_tisserand_invariant" : "3.791",
        "epoch_osculation" : "2458000.5",
        "eccentricity" : ".4814784215586869",
        "semi_major_axis" : "1.727144538523572",
        "inclination" : "39.54266148697652",
        "ascending_node_longitude" : "64.30187999079187",
        "orbital_period" : "829.0704808602858",
        "perihelion_distance" : ".8955617123115357",
        "perihelion_argument" : "109.9839886488011",
        "aphelion_distance" : "2.558727364735608",
        "perihelion_time" : "2458341.755504851339",
        "mean_anomaly" : "211.8196165674546",
        "mean_motion" : ".4342212252285785",
        "equinox" : "J2000"
      }
    }, {
      "links" : {
        "self" : "https://api.nasa.gov/neo/rest/v1/neo/3552665?api_key=t0TVs3DtDT2H8Oy2Zy8m2eVrNsAVKAexjcZXUckd"
      },
      "neo_reference_id" : "3552665",
      "name" : "(2010 WD9)",
      "nasa_jpl_url" : "http://ssd.jpl.nasa.gov/sbdb.cgi?sstr=3552665",
      "absolute_magnitude_h" : 23.7,
      "estimated_diameter" : {
        "kilometers" : {
          "estimated_diameter_min" : 0.0483676488,
          "estimated_diameter_max" : 0.1081533507
        },
        "meters" : {
          "estimated_diameter_min" : 48.3676488219,
          "estimated_diameter_max" : 108.1533506775
        },
        "miles" : {
          "estimated_diameter_min" : 0.0300542543,
          "estimated_diameter_max" : 0.0672033557
        },
        "feet" : {
          "estimated_diameter_min" : 158.6865169607,
          "estimated_diameter_max" : 354.8338390368
        }
      },
      "is_potentially_hazardous_asteroid" : false,
      "close_approach_data" : [ {
        "close_approach_date" : "1997-12-15",
        "epoch_date_close_approach" : 882172800000,
        "relative_velocity" : {
          "kilometers_per_second" : "9.0212592142",
          "kilometers_per_hour" : "32476.5331710091",
          "miles_per_hour" : "20179.6547361751"
        },
        "miss_distance" : {
          "astronomical" : "0.1059386403",
          "lunar" : "41.2101325989",
          "kilometers" : "15848196",
          "miles" : "9847612"
        },
        "orbiting_body" : "Earth"
      } ],
      "orbital_data" : {
        "orbit_id" : "17",
        "orbit_determination_date" : "2017-04-06 08:55:31",
        "orbit_uncertainty" : "5",
        "minimum_orbit_intersection" : ".00182612",
        "jupiter_tisserand_invariant" : "4.756",
        "epoch_osculation" : "2458000.5",
        "eccentricity" : ".3061525926159739",
        "semi_major_axis" : "1.377660867855848",
        "inclination" : "2.128786313524685",
        "ascending_node_longitude" : "63.82953892131096",
        "orbital_period" : "590.6251153732496",
        "perihelion_distance" : ".9558864214162076",
        "perihelion_argument" : "333.6234461390038",
        "aphelion_distance" : "1.799435314295488",
        "perihelion_time" : "2457866.033698076555",
        "mean_anomaly" : "81.96039659073507",
        "mean_motion" : ".6095236904588717",
        "equinox" : "J2000"
      }
    }, {
      "links" : {
        "self" : "https://api.nasa.gov/neo/rest/v1/neo/3723816?api_key=t0TVs3DtDT2H8Oy2Zy8m2eVrNsAVKAexjcZXUckd"
      },
      "neo_reference_id" : "3723816",
      "name" : "(2015 MN116)",
      "nasa_jpl_url" : "http://ssd.jpl.nasa.gov/sbdb.cgi?sstr=3723816",
      "absolute_magnitude_h" : 19.8,
      "estimated_diameter" : {
        "kilometers" : {
          "estimated_diameter_min" : 0.2914439045,
          "estimated_diameter_max" : 0.6516883822
        },
        "meters" : {
          "estimated_diameter_min" : 291.4439045349,
          "estimated_diameter_max" : 651.6883821679
        },
        "miles" : {
          "estimated_diameter_min" : 0.1810947904,
          "estimated_diameter_max" : 0.4049402617
        },
        "feet" : {
          "estimated_diameter_min" : 956.1808197541,
          "estimated_diameter_max" : 2138.0853117517
        }
      },
      "is_potentially_hazardous_asteroid" : false,
      "close_approach_data" : [ {
        "close_approach_date" : "1997-12-15",
        "epoch_date_close_approach" : 882172800000,
        "relative_velocity" : {
          "kilometers_per_second" : "28.4720745745",
          "kilometers_per_hour" : "102499.4684680412",
          "miles_per_hour" : "63689.1836156004"
        },
        "miss_distance" : {
          "astronomical" : "0.1656656969",
          "lunar" : "64.4439544678",
          "kilometers" : "24783236",
          "miles" : "15399589"
        },
        "orbiting_body" : "Earth"
      } ],
      "orbital_data" : {
        "orbit_id" : "13",
        "orbit_determination_date" : "2017-08-10 06:19:11",
        "orbit_uncertainty" : "3",
        "minimum_orbit_intersection" : ".137029",
        "jupiter_tisserand_invariant" : "3.736",
        "epoch_osculation" : "2458000.5",
        "eccentricity" : ".5296510071260822",
        "semi_major_axis" : "1.707985809028637",
        "inclination" : "44.77170034645007",
        "ascending_node_longitude" : "265.0943502397562",
        "orbital_period" : "815.3138386712601",
        "perihelion_distance" : ".8033494051195632",
        "perihelion_argument" : "97.09567006325857",
        "aphelion_distance" : "2.612622212937711",
        "perihelion_time" : "2458082.105294841286",
        "mean_anomaly" : "323.9673647748444",
        "mean_motion" : ".4415477610274617",
        "equinox" : "J2000"
      }
    } ]
  }
}